{
    "links": {
        "self": "http://www.neowsapp.com/rest/v1/neo/3781235?api_key=iIulBulltgU6a56xZRHN4H3l9WmuAYTsLGpBGhQ2"
    },
    "id": "3781235",
    "neo_reference_id": "3781235",
    "name": "(2017 QP32)",
    "designation": "2017 QP32",
    "nasa_jpl_url": "http://ssd.jpl.nasa.gov/sbdb.cgi?sstr=3781235",
    "absolute_magnitude_h": 25.8,
    "estimated_diameter": {
        "kilometers": {
            "estimated_diameter_min": 0.0183888672,
            "estimated_diameter_max": 0.0411187571
        },
        "meters": {
            "estimated_diameter_min": 18.388867207,
            "estimated_diameter_max": 41.1187571041
        },
        "miles": {
            "estimated_diameter_min": 0.0114263088,
            "estimated_diameter_max": 0.0255500032
        },
        "feet": {
            "estimated_diameter_min": 60.3309310875,
            "estimated_diameter_max": 134.9040630575
        }
    },
    "is_potentially_hazardous_asteroid": false,
    "close_approach_data": [
        {
            "close_approach_date": "2017-08-18",
            "close_approach_date_full": "2017-Aug-18 21:07",
            "epoch_date_close_approach": 1503090420000,
            "relative_velocity": {
                "kilometers_per_second": "15.0101155064",
                "kilometers_per_hour": "54036.4158231498",
                "miles_per_hour": "33576.1273763344"
            },
            "miss_distance": {
                "astronomical": "0.0306470131",
                "lunar": "11.9216880959",
                "kilometers": "4584727.881622097",
                "miles": "2848817.8042030586"
            },
            "orbiting_body": "Earth"
        }
    ],
    "orbital_data": {
        "orbit_id": "1",
        "orbit_determination_date": "2017-08-29 14:42:09",
        "first_observation_date": "2017-08-24",
        "last_observation_date": "2017-08-29",
        "data_arc_in_days": 5,
        "observations_used": 14,
        "orbit_uncertainty": "8",
        "minimum_orbit_intersection": ".00775",
        "jupiter_tisserand_invariant": "3.971",
        "epoch_osculation": "2457991.5",
        "eccentricity": ".5355411416815931",
        "semi_major_axis": "1.733525518600504",
        "inclination": "5.903747026994566",
        "ascending_node_longitude": "327.6804272638069",
        "orbital_period": "833.669255342478",
        "perihelion_distance": ".8051512832350143",
        "perihelion_argument": "289.976407887196",
        "aphelion_distance": "2.661899753965993",
        "perihelion_time": "2457937.856548823156",
        "mean_anomaly": "23.16463309628765",
        "mean_motion": ".431825928199918",
        "equinox": "J2000",
        "orbit_class": {
            "orbit_class_type": "APO",
            "orbit_class_description": "Near-Earth asteroid orbits which cross the Earth’s orbit similar to that of 1862 Apollo",
            "orbit_class_range": "a (semi-major axis) > 1.0 AU; q (perihelion) < 1.017 AU"
        }
    },
    "is_sentry_object": false
}